{"fetched_at":"2026-04-08T17:04:03Z","count":12288,"tles":[{"name":"STARLINK-36326","line1":"1 68519U 26068M   26096.99439655 -.00580811  11715-3 -16209-2 0  9997","line2":"2 68519  53.1618   7.5302 0000635  17.2429 342.8621 15.92907087  1141","category":"Starlink"}]}