{
  "norad_id": 68519,
  "name": "STARLINK-36326",
  "history": [
    {
      "epoch": "2026-04-06T23:51:55.861920Z",
      "apogee_km": 294.57614347174786,
      "perigee_km": 293.7287627112055,
      "latitude_deg": 5.140351086408942e-05,
      "longitude_deg": 174.26981728592605,
      "height_km": 294.6717867341524,
      "semi_major_axis_km": 6672.289453091476,
      "eccentricity": 6.35e-05,
      "inclination_deg": 53.1618,
      "raan_deg": 7.5302,
      "arg_perigee_deg": 17.2429,
      "mean_anomaly_deg": 342.8621,
      "mean_motion_rev_day": 15.92907087
    }
  ]
}